[{"OBJECT_NAME":"JB-3 3 (ZY 2C)","OBJECT_ID":"2004-044A","EPOCH":"2026-03-09T22:02:57.764832","MEAN_MOTION":15.18506021,"ECCENTRICITY":0.00333938,"INCLINATION":97.2622,"RA_OF_ASC_NODE":226.2642,"ARG_OF_PERICENTER":206.2478,"MEAN_ANOMALY":153.7066,"EPHEMERIS_TYPE":0,"CLASSIFICATION_TYPE":"U","NORAD_CAT_ID":28470,"ELEMENT_SET_NO":999,"REV_AT_EPOCH":17271,"BSTAR":0.00032413866,"MEAN_MOTION_DOT":6.719e-5,"MEAN_MOTION_DDOT":0},{"OBJECT_NAME":"COSMOS 2567","OBJECT_ID":"2023-040A","EPOCH":"2026-03-09T23:38:00.899232","MEAN_MOTION":15.24128007,"ECCENTRICITY":0.00028166,"INCLINATION":97.5865,"RA_OF_ASC_NODE":353.8755,"ARG_OF_PERICENTER":82.0927,"MEAN_ANOMALY":278.063,"EPHEMERIS_TYPE":0,"CLASSIFICATION_TYPE":"U","NORAD_CAT_ID":55978,"ELEMENT_SET_NO":999,"REV_AT_EPOCH":16494,"BSTAR":0.00023360479,"MEAN_MOTION_DOT":5.606e-5,"MEAN_MOTION_DDOT":0}]
